start=new Date('2022-03-08T00:00:00.000Z').valueOf();
sats=[{"COUNTRY_CODE":"US","TLE_LINE1":"1 47878U 21021U   22066.54321631 -.00001908  00000-0 -10924-3 0  9990","GP_ID":"198187451","ECCENTRICITY":"0.00019590","EPOCH":"2022-03-07T13:02:13.889184","TIME_SYSTEM":"UTC","APOAPSIS":"548.582","LAUNCH_DATE":"2021-03-14","REF_FRAME":"TEME","SEMIMAJOR_AXIS":"6925.361","MEAN_MOTION":"15.06396066","ELEMENT_SET_NO":"999","SITE":"AFETR","MEAN_MOTION_DOT":"-0.00001908","OBJECT_ID":"2021-021U","DECAY_DATE":null,"NORAD_CAT_ID":"47878","REV_AT_EPOCH":"5545","PERIAPSIS":"545.869","FILE":"3349821","OBJECT_TYPE":"PAYLOAD","RA_OF_ASC_NODE":"359.9422","MEAN_MOTION_DDOT":"0.0000000000000","PERIOD":"95.592","MEAN_ANOMALY":"308.9324","ARG_OF_PERICENTER":"51.1839","TLE_LINE2":"2 47878  53.0558 359.9422 0001959  51.1839 308.9324 15.06396066 55457","EPHEMERIS_TYPE":"0","RCS_SIZE":"LARGE","BSTAR":"-0.00010924000000","MEAN_ELEMENT_THEORY":"SGP4","CENTER_NAME":"EARTH","OBJECT_NAME":"STARLINK-2335","INCLINATION":"53.0558","CLASSIFICATION_TYPE":"U"},{"APOAPSIS":"548.310","TIME_SYSTEM":"UTC","EPOCH":"2022-03-07T20:55:16.954464","ECCENTRICITY":"0.00016090","TLE_LINE1":"1 47879U 21021V   22066.87172401  .00004305  00000-0  30766-3 0  9994","COUNTRY_CODE":"US","GP_ID":"198188201","REV_AT_EPOCH":"5567","PERIAPSIS":"546.081","NORAD_CAT_ID":"47879","DECAY_DATE":null,"MEAN_MOTION_DOT":"0.00004305","OBJECT_ID":"2021-021V","SITE":"AFETR","ELEMENT_SET_NO":"999","MEAN_MOTION":"15.06405923","REF_FRAME":"TEME","SEMIMAJOR_AXIS":"6925.330","LAUNCH_DATE":"2021-03-14","ARG_OF_PERICENTER":"48.5263","MEAN_ANOMALY":"311.5864","PERIOD":"95.592","MEAN_MOTION_DDOT":"0.0000000000000","OBJECT_TYPE":"PAYLOAD","RA_OF_ASC_NODE":"13.4735","FILE":"3349821","CLASSIFICATION_TYPE":"U","OBJECT_NAME":"STARLINK-2336","INCLINATION":"53.0564","MEAN_ELEMENT_THEORY":"SGP4","CENTER_NAME":"EARTH","BSTAR":"0.00030766000000","RCS_SIZE":"LARGE","EPHEMERIS_TYPE":"0","TLE_LINE2":"2 47879  53.0564  13.4735 0001609  48.5263 311.5864 15.06405923 55673"},{"ARG_OF_PERICENTER":"58.3070","MEAN_ANOMALY":"301.8183","PERIOD":"95.592","MEAN_MOTION_DDOT":"0.0000000000000","RA_OF_ASC_NODE":"8.5663","OBJECT_TYPE":"PAYLOAD","FILE":"3349821","CLASSIFICATION_TYPE":"U","INCLINATION":"53.0576","OBJECT_NAME":"STARLINK-2337","CENTER_NAME":"EARTH","MEAN_ELEMENT_THEORY":"SGP4","BSTAR":"-0.00009782600000","RCS_SIZE":"LARGE","EPHEMERIS_TYPE":"0","TLE_LINE2":"2 47880  53.0576   8.5663 0002707  58.3070 301.8183 15.06401889 55569","APOAPSIS":"549.082","TIME_SYSTEM":"UTC","EPOCH":"2022-03-07T20:16:08.575680","ECCENTRICITY":"0.00027070","TLE_LINE1":"1 47880U 21021W   22066.84454370 -.00001739  00000-0 -97826-4 0  9992","GP_ID":"198188453","COUNTRY_CODE":"US","REV_AT_EPOCH":"5556","PERIAPSIS":"545.333","NORAD_CAT_ID":"47880","DECAY_DATE":null,"OBJECT_ID":"2021-021W","MEAN_MOTION_DOT":"-0.00001739","SITE":"AFETR","ELEMENT_SET_NO":"999","MEAN_MOTION":"15.06401889","REF_FRAME":"TEME","SEMIMAJOR_AXIS":"6925.343","LAUNCH_DATE":"2021-03-14"},{"MEAN_ANOMALY":"290.0773","PERIOD":"95.592","ARG_OF_PERICENTER":"70.0372","FILE":"3349821","RA_OF_ASC_NODE":"8.4717","OBJECT_TYPE":"PAYLOAD","MEAN_MOTION_DDOT":"0.0000000000000","INCLINATION":"53.0581","OBJECT_NAME":"STARLINK-2339","MEAN_ELEMENT_THEORY":"SGP4","CENTER_NAME":"EARTH","CLASSIFICATION_TYPE":"U","TLE_LINE2":"2 47881  53.0581   8.4717 0001452  70.0372 290.0773 15.06401289 55532","RCS_SIZE":"LARGE","EPHEMERIS_TYPE":"0","BSTAR":"0.00011624000000","TIME_SYSTEM":"UTC","APOAPSIS":"548.215","COUNTRY_CODE":"US","TLE_LINE1":"1 47881U 21021X   22066.87035100  .00001450  00000-0  11624-3 0  9991","GP_ID":"198189203","EPOCH":"2022-03-07T20:53:18.326400","ECCENTRICITY":"0.00014520","DECAY_DATE":null,"NORAD_CAT_ID":"47881","PERIAPSIS":"546.204","REV_AT_EPOCH":"5553","REF_FRAME":"TEME","SEMIMAJOR_AXIS":"6925.345","LAUNCH_DATE":"2021-03-14","SITE":"AFETR","MEAN_MOTION":"15.06401289","ELEMENT_SET_NO":"999","OBJECT_ID":"2021-021X","MEAN_MOTION_DOT":"0.00001450"},{"MEAN_MOTION_DDOT":"0.0000000000000","RA_OF_ASC_NODE":"0.0663","OBJECT_TYPE":"PAYLOAD","FILE":"3349821","ARG_OF_PERICENTER":"62.8994","PERIOD":"95.593","MEAN_ANOMALY":"297.2155","BSTAR":"-0.00017464000000","EPHEMERIS_TYPE":"0","RCS_SIZE":"LARGE","TLE_LINE2":"2 47882  53.0565   0.0663 0001571  62.8994 297.2155 15.06389743 55829","CLASSIFICATION_TYPE":"U","MEAN_ELEMENT_THEORY":"SGP4","CENTER_NAME":"EARTH","OBJECT_NAME":"STARLINK-2340","INCLINATION":"53.0565","ECCENTRICITY":"0.00015710","EPOCH":"2022-03-07T12:19:46.511328","GP_ID":"198187951","TLE_LINE1":"1 47882U 21021Y   22066.51373277 -.00002881  00000-0 -17464-3 0  9992","COUNTRY_CODE":"US","APOAPSIS":"548.333","TIME_SYSTEM":"UTC","MEAN_MOTION_DOT":"-0.00002881","OBJECT_ID":"2021-021Y","MEAN_MOTION":"15.06389743","ELEMENT_SET_NO":"999","SITE":"AFETR","LAUNCH_DATE":"2021-03-14","SEMIMAJOR_AXIS":"6925.380","REF_FRAME":"TEME","REV_AT_EPOCH":"5582","PERIAPSIS":"546.157","NORAD_CAT_ID":"47882","DECAY_DATE":null},{"PERIOD":"95.592","MEAN_ANOMALY":"299.8143","ARG_OF_PERICENTER":"60.3032","FILE":"3349821","OBJECT_TYPE":"PAYLOAD","RA_OF_ASC_NODE":"4.9032","MEAN_MOTION_DDOT":"0.0000000000000","MEAN_ELEMENT_THEORY":"SGP4","CENTER_NAME":"EARTH","INCLINATION":"53.0551","OBJECT_NAME":"STARLINK-2342","CLASSIFICATION_TYPE":"U","TLE_LINE2":"2 47883  53.0551   4.9032 0001864  60.3032 299.8143 15.06403936 55768","EPHEMERIS_TYPE":"0","RCS_SIZE":"LARGE","BSTAR":"-0.00035854000000","TIME_SYSTEM":"UTC","APOAPSIS":"548.492","COUNTRY_CODE":"US","TLE_LINE1":"1 47883U 21021Z   22066.55196702 -.00005619  00000-0 -35854-3 0  9998","GP_ID":"198187702","ECCENTRICITY":"0.00018640","EPOCH":"2022-03-07T13:14:49.950528","DECAY_DATE":null,"NORAD_CAT_ID":"47883","REV_AT_EPOCH":"5576","PERIAPSIS":"545.911","LAUNCH_DATE":"2021-03-14","REF_FRAME":"TEME","SEMIMAJOR_AXIS":"6925.336","MEAN_MOTION":"15.06403936","ELEMENT_SET_NO":"999","SITE":"AFETR","MEAN_MOTION_DOT":"-0.00005619","OBJECT_ID":"2021-021Z"},{"TIME_SYSTEM":"UTC","APOAPSIS":"548.566","GP_ID":"198188953","TLE_LINE1":"1 47884U 21021AA  22066.80031966 -.00002311  00000-0 -13630-3 0  9991","COUNTRY_CODE":"US","ECCENTRICITY":"0.00019640","EPOCH":"2022-03-07T19:12:27.618624","DECAY_DATE":null,"NORAD_CAT_ID":"47884","PERIAPSIS":"545.846","REV_AT_EPOCH":"5555","LAUNCH_DATE":"2021-03-14","REF_FRAME":"TEME","SEMIMAJOR_AXIS":"6925.341","ELEMENT_SET_NO":"999","MEAN_MOTION":"15.06402353","SITE":"AFETR","OBJECT_ID":"2021-021AA","MEAN_MOTION_DOT":"-0.00002311","PERIOD":"95.592","MEAN_ANOMALY":"299.6196","ARG_OF_PERICENTER":"60.4989","FILE":"3349821","OBJECT_TYPE":"PAYLOAD","RA_OF_ASC_NODE":"8.7853","MEAN_MOTION_DDOT":"0.0000000000000","MEAN_ELEMENT_THEORY":"SGP4","CENTER_NAME":"EARTH","INCLINATION":"53.0560","OBJECT_NAME":"STARLINK-2343","CLASSIFICATION_TYPE":"U","TLE_LINE2":"2 47884  53.0560   8.7853 0001964  60.4989 299.6196 15.06402353 55550","EPHEMERIS_TYPE":"0","RCS_SIZE":"LARGE","BSTAR":"-0.00013630000000"},{"TIME_SYSTEM":"UTC","APOAPSIS":"548.478","EPOCH":"2022-03-07T20:39:23.026752","ECCENTRICITY":"0.00017770","TLE_LINE1":"1 47885U 21021AB  22066.86068318 -.00002736  00000-0 -16492-3 0  9999","GP_ID":"198188704","COUNTRY_CODE":"US","PERIAPSIS":"546.017","REV_AT_EPOCH":"5565","DECAY_DATE":null,"NORAD_CAT_ID":"47885","OBJECT_ID":"2021-021AB","MEAN_MOTION_DOT":"-0.00002736","SEMIMAJOR_AXIS":"6925.382","REF_FRAME":"TEME","LAUNCH_DATE":"2021-03-14","SITE":"AFETR","MEAN_MOTION":"15.06389039","ELEMENT_SET_NO":"999","MEAN_ANOMALY":"298.5711","PERIOD":"95.593","ARG_OF_PERICENTER":"61.5457","RA_OF_ASC_NODE":"13.5048","OBJECT_TYPE":"PAYLOAD","MEAN_MOTION_DDOT":"0.0000000000000","FILE":"3349821","CLASSIFICATION_TYPE":"U","OBJECT_NAME":"STARLINK-2344","INCLINATION":"53.0548","CENTER_NAME":"EARTH","MEAN_ELEMENT_THEORY":"SGP4","RCS_SIZE":"LARGE","EPHEMERIS_TYPE":"0","BSTAR":"-0.00016492000000","TLE_LINE2":"2 47885  53.0548  13.5048 0001777  61.5457 298.5711 15.06389039 55658"},{"EPOCH":"2022-03-07T19:03:47.274624","ECCENTRICITY":"0.00019180","COUNTRY_CODE":"US","TLE_LINE1":"1 47886U 21021AC  22066.79429716 -.00011522  00000-0 -75503-3 0  9996","GP_ID":"198187452","TIME_SYSTEM":"UTC","APOAPSIS":"548.418","OBJECT_ID":"2021-021AC","MEAN_MOTION_DOT":"-0.00011522","SEMIMAJOR_AXIS":"6925.225","REF_FRAME":"TEME","LAUNCH_DATE":"2021-03-14","SITE":"AFETR","MEAN_MOTION":"15.06440433","ELEMENT_SET_NO":"999","REV_AT_EPOCH":"5563","PERIAPSIS":"545.761","DECAY_DATE":null,"NORAD_CAT_ID":"47886","OBJECT_TYPE":"PAYLOAD","RA_OF_ASC_NODE":"3.8144","MEAN_MOTION_DDOT":"0.0000000000000","FILE":"3349821","MEAN_ANOMALY":"307.9483","PERIOD":"95.590","ARG_OF_PERICENTER":"52.1680","RCS_SIZE":"LARGE","EPHEMERIS_TYPE":"0","BSTAR":"-0.00075503000000","TLE_LINE2":"2 47886  53.0572   3.8144 0001918  52.1680 307.9483 15.06440433 55631","CLASSIFICATION_TYPE":"U","INCLINATION":"53.0572","OBJECT_NAME":"STARLINK-2345","MEAN_ELEMENT_THEORY":"SGP4","CENTER_NAME":"EARTH"},{"PERIAPSIS":"546.213","REV_AT_EPOCH":"5549","NORAD_CAT_ID":"47887","DECAY_DATE":null,"MEAN_MOTION_DOT":"-0.00001944","OBJECT_ID":"2021-021AD","ELEMENT_SET_NO":"999","MEAN_MOTION":"15.06397914","SITE":"AFETR","LAUNCH_DATE":"2021-03-14","SEMIMAJOR_AXIS":"6925.355","REF_FRAME":"TEME","APOAPSIS":"548.227","TIME_SYSTEM":"UTC","ECCENTRICITY":"0.00014540","EPOCH":"2022-03-07T08:30:13.578048","TLE_LINE1":"1 47887U 21021AD  22066.35432382 -.00001944  00000-0 -11168-3 0  9996","GP_ID":"198151443","COUNTRY_CODE":"US","CLASSIFICATION_TYPE":"U","MEAN_ELEMENT_THEORY":"SGP4","CENTER_NAME":"EARTH","OBJECT_NAME":"STARLINK-2346","INCLINATION":"53.0548","BSTAR":"-0.00011168000000","EPHEMERIS_TYPE":"0","RCS_SIZE":"LARGE","TLE_LINE2":"2 47887  53.0548  10.7870 0001454  68.5388 291.5756 15.06397914 55499","ARG_OF_PERICENTER":"68.5388","PERIOD":"95.592","MEAN_ANOMALY":"291.5756","MEAN_MOTION_DDOT":"0.0000000000000","RA_OF_ASC_NODE":"10.7870","OBJECT_TYPE":"PAYLOAD","FILE":"3349338"}];
